start=new Date('2023-04-09T00:00:00.000Z').valueOf();
sats=[{"MEAN_ANOMALY":"291.0334","TLE_LINE2":"2 44724  53.0536 291.5089 0000823  69.0743 291.0334 15.06385814188269","RA_OF_ASC_NODE":"291.5089","APOAPSIS":"547.827","ELEMENT_SET_NO":"999","BSTAR":"0.00109190000000","SEMIMAJOR_AXIS":"6925.392","INCLINATION":"53.0536","FILE":"3883627","CLASSIFICATION_TYPE":"U","MEAN_ELEMENT_THEORY":"SGP4","NORAD_CAT_ID":"44724","EPHEMERIS_TYPE":"0","PERIOD":"95.593","OBJECT_NAME":"STARLINK-1019","LAUNCH_DATE":"2019-11-11","SITE":"AFETR","EPOCH":"2023-04-08T19:35:10.677120","ECCENTRICITY":"0.00008230","GP_ID":"229736986","RCS_SIZE":"LARGE","TLE_LINE1":"1 44724U 19074M   23098.81609580  .00016013  00000-0  10919-2 0  9994","MEAN_MOTION":"15.06385814","TIME_SYSTEM":"UTC","PERIAPSIS":"546.687","MEAN_MOTION_DDOT":"0.0000000000000","CENTER_NAME":"EARTH","COUNTRY_CODE":"US","REV_AT_EPOCH":"18826","ARG_OF_PERICENTER":"69.0743","DECAY_DATE":null,"MEAN_MOTION_DOT":"0.00016013","OBJECT_TYPE":"PAYLOAD","OBJECT_ID":"2019-074M","REF_FRAME":"TEME"},{"CLASSIFICATION_TYPE":"U","FILE":"3883627","SEMIMAJOR_AXIS":"6925.360","INCLINATION":"53.0534","MEAN_ELEMENT_THEORY":"SGP4","NORAD_CAT_ID":"44725","TLE_LINE2":"2 44725  53.0534 311.1844 0000986  67.6214 292.4879 15.06396383187994","MEAN_ANOMALY":"292.4879","ELEMENT_SET_NO":"999","BSTAR":"-0.00005158900000","APOAPSIS":"547.907","RA_OF_ASC_NODE":"311.1844","EPOCH":"2023-04-08T21:18:40.946688","RCS_SIZE":"LARGE","GP_ID":"229736985","ECCENTRICITY":"0.00009860","OBJECT_NAME":"STARLINK-1020","LAUNCH_DATE":"2019-11-11","PERIOD":"95.592","EPHEMERIS_TYPE":"0","SITE":"AFETR","PERIAPSIS":"546.542","MEAN_MOTION_DDOT":"0.0000000000000","TLE_LINE1":"1 44725U 19074N   23098.88797392 -.00001049  00000-0 -51589-4 0  9996","TIME_SYSTEM":"UTC","MEAN_MOTION":"15.06396383","OBJECT_ID":"2019-074N","OBJECT_TYPE":"PAYLOAD","REF_FRAME":"TEME","ARG_OF_PERICENTER":"67.6214","COUNTRY_CODE":"US","REV_AT_EPOCH":"18799","CENTER_NAME":"EARTH","MEAN_MOTION_DOT":"-0.00001049","DECAY_DATE":null},{"CENTER_NAME":"EARTH","REV_AT_EPOCH":"18826","COUNTRY_CODE":"US","ARG_OF_PERICENTER":"74.0550","DECAY_DATE":null,"MEAN_MOTION_DOT":"0.00002638","OBJECT_ID":"2019-074P","OBJECT_TYPE":"PAYLOAD","REF_FRAME":"TEME","TLE_LINE1":"1 44726U 19074P   23098.81241409  .00002638  00000-0  19594-3 0  9995","MEAN_MOTION":"15.06392356","TIME_SYSTEM":"UTC","PERIAPSIS":"546.493","MEAN_MOTION_DDOT":"0.0000000000000","EPHEMERIS_TYPE":"0","PERIOD":"95.593","OBJECT_NAME":"STARLINK-1021","LAUNCH_DATE":"2019-11-11","SITE":"AFETR","EPOCH":"2023-04-08T19:29:52.577376","ECCENTRICITY":"0.00010750","GP_ID":"229736480","RCS_SIZE":"LARGE","MEAN_ANOMALY":"286.0557","TLE_LINE2":"2 44726  53.0535 291.5280 0001075  74.0550 286.0557 15.06392356188265","RA_OF_ASC_NODE":"291.5280","APOAPSIS":"547.981","BSTAR":"0.00019594000000","ELEMENT_SET_NO":"999","INCLINATION":"53.0535","SEMIMAJOR_AXIS":"6925.372","FILE":"3883627","CLASSIFICATION_TYPE":"U","NORAD_CAT_ID":"44726","MEAN_ELEMENT_THEORY":"SGP4"},{"PERIAPSIS":"481.209","MEAN_MOTION_DDOT":"0.0000000000000","TLE_LINE1":"1 44727U 19074Q   23098.58334491  .01385499  00000-0  46218-1 0  9995","MEAN_MOTION":"15.27879150","TIME_SYSTEM":"UTC","OBJECT_ID":"2019-074Q","OBJECT_TYPE":"PAYLOAD","REF_FRAME":"TEME","CENTER_NAME":"EARTH","COUNTRY_CODE":"US","REV_AT_EPOCH":"130","ARG_OF_PERICENTER":"88.2684","DECAY_DATE":null,"MEAN_MOTION_DOT":"0.01385499","INCLINATION":"53.0562","SEMIMAJOR_AXIS":"6860.290","CLASSIFICATION_TYPE":"U","FILE":"3883527","MEAN_ELEMENT_THEORY":"SGP4","NORAD_CAT_ID":"44727","MEAN_ANOMALY":"241.2753","TLE_LINE2":"2 44727  53.0562 331.9184 0001379  88.2684 241.2753 15.27879150  1305","RA_OF_ASC_NODE":"331.9184","APOAPSIS":"483.102","BSTAR":"0.04621800000000","ELEMENT_SET_NO":"999","EPOCH":"2023-04-08T14:00:01.000224","GP_ID":"229724698","ECCENTRICITY":"0.00013790","RCS_SIZE":"LARGE","EPHEMERIS_TYPE":"0","PERIOD":"94.248","LAUNCH_DATE":"2019-11-11","OBJECT_NAME":"STARLINK-1022","SITE":"AFETR"},{"DECAY_DATE":null,"MEAN_MOTION_DOT":"0.00088639","REV_AT_EPOCH":"18852","COUNTRY_CODE":"US","CENTER_NAME":"EARTH","ARG_OF_PERICENTER":"258.7887","REF_FRAME":"TEME","OBJECT_ID":"2019-074S","OBJECT_TYPE":"PAYLOAD","TIME_SYSTEM":"UTC","MEAN_MOTION":"15.37628587","TLE_LINE1":"1 44729U 19074S   23098.72890441  .00088639  00000-0  23467-2 0  9992","MEAN_MOTION_DDOT":"0.0000000000000","PERIAPSIS":"449.262","SITE":"AFETR","PERIOD":"93.651","EPHEMERIS_TYPE":"0","OBJECT_NAME":"STARLINK-1024","LAUNCH_DATE":"2019-11-11","RCS_SIZE":"LARGE","GP_ID":"229736494","ECCENTRICITY":"0.00056570","EPOCH":"2023-04-08T17:29:37.341024","RA_OF_ASC_NODE":"269.2707","BSTAR":"0.00234670000000","ELEMENT_SET_NO":"999","APOAPSIS":"456.990","MEAN_ANOMALY":"101.2479","TLE_LINE2":"2 44729  53.0207 269.2707 0005657 258.7887 101.2479 15.37628587188526","NORAD_CAT_ID":"44729","MEAN_ELEMENT_THEORY":"SGP4","SEMIMAJOR_AXIS":"6831.261","INCLINATION":"53.0207","CLASSIFICATION_TYPE":"U","FILE":"3883628"},{"PERIAPSIS":"546.551","MEAN_MOTION_DDOT":"0.0000000000000","TLE_LINE1":"1 44731U 19074U   23098.82346752 -.00003814  00000-0 -23739-3 0  9994","MEAN_MOTION":"15.06388970","TIME_SYSTEM":"UTC","OBJECT_TYPE":"PAYLOAD","OBJECT_ID":"2019-074U","REF_FRAME":"TEME","CENTER_NAME":"EARTH","COUNTRY_CODE":"US","REV_AT_EPOCH":"18826","ARG_OF_PERICENTER":"84.9469","DECAY_DATE":null,"MEAN_MOTION_DOT":"-0.00003814","SEMIMAJOR_AXIS":"6925.382","INCLINATION":"53.0530","FILE":"3883629","CLASSIFICATION_TYPE":"U","NORAD_CAT_ID":"44731","MEAN_ELEMENT_THEORY":"SGP4","MEAN_ANOMALY":"275.1635","TLE_LINE2":"2 44731  53.0530 291.4750 0001006  84.9469 275.1635 15.06388970188263","RA_OF_ASC_NODE":"291.4750","APOAPSIS":"547.944","BSTAR":"-0.00023739000000","ELEMENT_SET_NO":"999","EPOCH":"2023-04-08T19:45:47.593728","GP_ID":"229736516","ECCENTRICITY":"0.00010060","RCS_SIZE":"LARGE","EPHEMERIS_TYPE":"0","PERIOD":"95.593","LAUNCH_DATE":"2019-11-11","OBJECT_NAME":"STARLINK-1026","SITE":"AFETR"},{"PERIAPSIS":"546.616","MEAN_MOTION_DDOT":"0.0000000000000","TLE_LINE1":"1 44732U 19074V   23098.87691959  .00000300  00000-0  39013-4 0  9990","TIME_SYSTEM":"UTC","MEAN_MOTION":"15.06394880","OBJECT_TYPE":"PAYLOAD","OBJECT_ID":"2019-074V","REF_FRAME":"TEME","COUNTRY_CODE":"US","REV_AT_EPOCH":"18799","CENTER_NAME":"EARTH","ARG_OF_PERICENTER":"97.9016","DECAY_DATE":null,"MEAN_MOTION_DOT":"0.00000300","INCLINATION":"53.0533","SEMIMAJOR_AXIS":"6925.364","CLASSIFICATION_TYPE":"U","FILE":"3883629","NORAD_CAT_ID":"44732","MEAN_ELEMENT_THEORY":"SGP4","MEAN_ANOMALY":"262.2074","TLE_LINE2":"2 44732  53.0533 311.2359 0000885  97.9016 262.2074 15.06394880187999","RA_OF_ASC_NODE":"311.2359","ELEMENT_SET_NO":"999","BSTAR":"0.00003901300000","APOAPSIS":"547.842","EPOCH":"2023-04-08T21:02:45.852576","RCS_SIZE":"LARGE","GP_ID":"229736509","ECCENTRICITY":"0.00008850","PERIOD":"95.592","EPHEMERIS_TYPE":"0","OBJECT_NAME":"STARLINK-1027","LAUNCH_DATE":"2019-11-11","SITE":"AFETR"},{"TIME_SYSTEM":"UTC","MEAN_MOTION":"15.06415552","TLE_LINE1":"1 44733U 19074W   23098.80871771  .00011354  00000-0  77955-3 0  9993","MEAN_MOTION_DDOT":"0.0000000000000","PERIAPSIS":"546.484","DECAY_DATE":null,"MEAN_MOTION_DOT":"0.00011354","COUNTRY_CODE":"US","REV_AT_EPOCH":"18826","CENTER_NAME":"EARTH","ARG_OF_PERICENTER":"80.9423","REF_FRAME":"TEME","OBJECT_TYPE":"PAYLOAD","OBJECT_ID":"2019-074W","RA_OF_ASC_NODE":"291.5436","BSTAR":"0.00077955000000","ELEMENT_SET_NO":"999","APOAPSIS":"547.848","MEAN_ANOMALY":"279.1677","TLE_LINE2":"2 44733  53.0547 291.5436 0000985  80.9423 279.1677 15.06415552188263","MEAN_ELEMENT_THEORY":"SGP4","NORAD_CAT_ID":"44733","INCLINATION":"53.0547","SEMIMAJOR_AXIS":"6925.301","CLASSIFICATION_TYPE":"U","FILE":"3883629","SITE":"AFETR","PERIOD":"95.591","EPHEMERIS_TYPE":"0","OBJECT_NAME":"STARLINK-1028","LAUNCH_DATE":"2019-11-11","RCS_SIZE":"LARGE","GP_ID":"229736510","ECCENTRICITY":"0.00009850","EPOCH":"2023-04-08T19:24:33.210144"},{"EPOCH":"2023-04-08T13:23:38.456736","RCS_SIZE":"LARGE","GP_ID":"229724950","ECCENTRICITY":"0.00013960","LAUNCH_DATE":"2019-11-11","OBJECT_NAME":"STARLINK-1029","PERIOD":"95.594","EPHEMERIS_TYPE":"0","SITE":"AFETR","FILE":"3883527","CLASSIFICATION_TYPE":"U","SEMIMAJOR_AXIS":"6925.452","INCLINATION":"53.0556","NORAD_CAT_ID":"44734","MEAN_ELEMENT_THEORY":"SGP4","TLE_LINE2":"2 44734  53.0556 212.6698 0001396  80.1591 279.9555 15.06366166189151","MEAN_ANOMALY":"279.9555","BSTAR":"0.00171570000000","ELEMENT_SET_NO":"999","APOAPSIS":"548.284","RA_OF_ASC_NODE":"212.6698","OBJECT_ID":"2019-074X","OBJECT_TYPE":"PAYLOAD","REF_FRAME":"TEME","ARG_OF_PERICENTER":"80.1591","COUNTRY_CODE":"US","REV_AT_EPOCH":"18915","CENTER_NAME":"EARTH","MEAN_MOTION_DOT":"0.00025343","DECAY_DATE":null,"PERIAPSIS":"546.350","MEAN_MOTION_DDOT":"0.0000000000000","TLE_LINE1":"1 44734U 19074X   23098.55808399  .00025343  00000-0  17157-2 0  9992","TIME_SYSTEM":"UTC","MEAN_MOTION":"15.06366166"},{"EPHEMERIS_TYPE":"0","PERIOD":"95.592","LAUNCH_DATE":"2019-11-11","OBJECT_NAME":"STARLINK-1030","SITE":"AFETR","EPOCH":"2023-04-08T13:15:40.719168","GP_ID":"229725700","ECCENTRICITY":"0.00013030","RCS_SIZE":"LARGE","MEAN_ANOMALY":"274.7684","TLE_LINE2":"2 44735  53.0538 312.6938 0001303  85.3454 274.7684 15.06398177187772","RA_OF_ASC_NODE":"312.6938","APOAPSIS":"548.122","ELEMENT_SET_NO":"999","BSTAR":"-0.00023266000000","SEMIMAJOR_AXIS":"6925.354","INCLINATION":"53.0538","CLASSIFICATION_TYPE":"U","FILE":"3883527","NORAD_CAT_ID":"44735","MEAN_ELEMENT_THEORY":"SGP4","CENTER_NAME":"EARTH","COUNTRY_CODE":"US","REV_AT_EPOCH":"18777","ARG_OF_PERICENTER":"85.3454","DECAY_DATE":null,"MEAN_MOTION_DOT":"-0.00003745","OBJECT_ID":"2019-074Y","OBJECT_TYPE":"PAYLOAD","REF_FRAME":"TEME","TLE_LINE1":"1 44735U 19074Y   23098.55255462 -.00003745  00000-0 -23266-3 0  9993","MEAN_MOTION":"15.06398177","TIME_SYSTEM":"UTC","PERIAPSIS":"546.317","MEAN_MOTION_DDOT":"0.0000000000000"}];
